GLOBALSTAR M019         
1 25677U 99019B   24340.53815888 -.00000013  00000+0  80672-3 0  9994
2 25677  51.9876 253.9463 0001015 342.5232 188.4132 12.13866121161629
GLOBALSTAR M042         
1 25679U 99019D   24340.49212133 -.00000040  00000+0  48613-3 0  9994
2 25679  52.0010 237.7575 0001937 265.4886 265.8431 12.22074331161578
GLOBALSTAR M025         
1 25770U 99031A   24340.48122711 -.00000034  00000+0  10303-2 0  9998
2 25770  51.9814 248.0058 0001203 138.9718  31.3723 11.22557438459950
GLOBALSTAR M049         
1 25771U 99031B   24340.56357049 -.00000131  00000+0 -22702-2 0  9997
2 25771  51.9881 272.8470 0004136  49.5122 310.6035 11.12112657 95888
GLOBALSTAR M047         
1 25772U 99031C   24340.57875839 -.00000035  00000+0  94546-3 0  9999
2 25772  51.9845 288.2798 0016167 292.7312  67.1785 11.31925444449182
GLOBALSTAR M052         
1 25773U 99031D   24340.40461486 -.00000030  00000+0  12053-2 0  9998
2 25773  51.9899  24.6075 0002688 203.3524 169.8146 11.15055510456895
